{
  "type": "FeatureCollection",
  "features": [
    {
      "type": "Feature",
      "properties": {
        "norad_id": 35883,
        "name": "COSMOS 2251 DEB",
        "group": "cosmos-2251-debris",
        "lat": 57.183825698500904,
        "lon": 114.02367503707514,
        "alt_km": 773.2985798911104,
        "timestamp": "2025-12-03T08:58:46.399789+00:00",
        "meta_object_name": "COSMOS 2251 DEB",
        "meta_object_id": "1993-036ATW",
        "meta_epoch": "2025-11-29T02:53:29.744160",
        "meta_mean_motion": 14.50541303,
        "meta_eccentricity": 0.00841977,
        "meta_inclination": 74.0237,
        "meta_ra_of_asc_node": 95.6459,
        "meta_arg_of_pericenter": 227.8885,
        "meta_mean_anomaly": 309.997,
        "meta_ephemeris_type": 0,
        "meta_classification_type": "U",
        "meta_norad_cat_id": 35883,
        "meta_element_set_no": 999,
        "meta_rev_at_epoch": 62188,
        "meta_bstar": 0.00041574036,
        "meta_mean_motion_dot": 1.674e-05,
        "meta_mean_motion_ddot": 0,
        "tle_line1": "1 35883U 93036ATW 25333.12048315  .00001674  00000+0  41574-3 0  9999",
        "tle_line2": "2 35883  74.0237  95.6459 0084197 227.8885 309.9970 14.50541303621887"
      },
      "geometry": {
        "type": "Point",
        "coordinates": [
          114.02367503707514,
          57.183825698500904
        ]
      }
    },
    {
      "type": "Feature",
      "properties": {
        "norad_id": 35884,
        "name": "COSMOS 2251 DEB",
        "group": "cosmos-2251-debris",
        "lat": -72.98099916192777,
        "lon": -117.32768274538238,
        "alt_km": 854.2837724856145,
        "timestamp": "2025-12-03T08:58:46.399799+00:00",
        "meta_object_name": "COSMOS 2251 DEB",
        "meta_object_id": "1993-036ATX",
        "meta_epoch": "2025-12-01T08:35:40.210656",
        "meta_mean_motion": 14.25555603,
        "meta_eccentricity": 0.01094526,
        "meta_inclination": 73.9914,
        "meta_ra_of_asc_node": 356.6148,
        "meta_arg_of_pericenter": 146.5236,
        "meta_mean_anomaly": 214.2894,
        "meta_ephemeris_type": 0,
        "meta_classification_type": "U",
        "meta_norad_cat_id": 35884,
        "meta_element_set_no": 999,
        "meta_rev_at_epoch": 22195,
        "meta_bstar": 0.0012758145,
        "meta_mean_motion_dot": 3.19e-05,
        "meta_mean_motion_ddot": 0,
        "tle_line1": "1 35884U 93036ATX 25335.35810429  .00003190  00000+0  12758-2 0  9996",
        "tle_line2": "2 35884  73.9914 356.6148 0109452 146.5236 214.2894 14.25555603221959"
      },
      "geometry": {
        "type": "Point",
        "coordinates": [
          -117.32768274538238,
          -72.98099916192777
        ]
      }
    },
    {
      "type": "Feature",
      "properties": {
        "norad_id": 35885,
        "name": "COSMOS 2251 DEB",
        "group": "cosmos-2251-debris",
        "lat": 12.196216014437574,
        "lon": -44.40976344443671,
        "alt_km": 752.6837550946402,
        "timestamp": "2025-12-03T08:58:46.399809+00:00",
        "meta_object_name": "COSMOS 2251 DEB",
        "meta_object_id": "1993-036ATY",
        "meta_epoch": "2025-12-01T06:48:48.094272",
        "meta_mean_motion": 14.37483132,
        "meta_eccentricity": 0.0022714,
        "meta_inclination": 74.0277,
        "meta_ra_of_asc_node": 315.8881,
        "meta_arg_of_pericenter": 39.4634,
        "meta_mean_anomaly": 320.8169,
        "meta_ephemeris_type": 0,
        "meta_classification_type": "U",
        "meta_norad_cat_id": 35885,
        "meta_element_set_no": 999,
        "meta_rev_at_epoch": 64851,
        "meta_bstar": 0.00036957,
        "meta_mean_motion_dot": 1.083e-05,
        "meta_mean_motion_ddot": 0,
        "tle_line1": "1 35885U 93036ATY 25335.28388998  .00001083  00000+0  36957-3 0  9997",
        "tle_line2": "2 35885  74.0277 315.8881 0022714  39.4634 320.8169 14.37483132648516"
      },
      "geometry": {
        "type": "Point",
        "coordinates": [
          -44.40976344443671,
          12.196216014437574
        ]
      }
    },
    {
      "type": "Feature",
      "properties": {
        "norad_id": 35888,
        "name": "COSMOS 2251 DEB",
        "group": "cosmos-2251-debris",
        "lat": -13.123484062446,
        "lon": 10.668610405255302,
        "alt_km": 735.943426568293,
        "timestamp": "2025-12-03T08:58:46.399819+00:00",
        "meta_object_name": "COSMOS 2251 DEB",
        "meta_object_id": "1993-036AUB",
        "meta_epoch": "2025-12-02T19:52:14.823840",
        "meta_mean_motion": 14.58260804,
        "meta_eccentricity": 0.0048767,
        "meta_inclination": 74.0343,
        "meta_ra_of_asc_node": 15.5347,
        "meta_arg_of_pericenter": 150.5508,
        "meta_mean_anomaly": 209.8421,
        "meta_ephemeris_type": 0,
        "meta_classification_type": "U",
        "meta_norad_cat_id": 35888,
        "meta_element_set_no": 999,
        "meta_rev_at_epoch": 86129,
        "meta_bstar": 0.00052584,
        "meta_mean_motion_dot": 2.44e-05,
        "meta_mean_motion_ddot": 0,
        "tle_line1": "1 35888U 93036AUB 25336.82794935  .00002440  00000+0  52584-3 0  9995",
        "tle_line2": "2 35888  74.0343  15.5347 0048767 150.5508 209.8421 14.58260804861296"
      },
      "geometry": {
        "type": "Point",
        "coordinates": [
          10.668610405255302,
          -13.123484062446
        ]
      }
    },
    {
      "type": "Feature",
      "properties": {
        "norad_id": 35890,
        "name": "COSMOS 2251 DEB",
        "group": "cosmos-2251-debris",
        "lat": 56.73321663205764,
        "lon": -73.34159345401085,
        "alt_km": 664.9938952641314,
        "timestamp": "2025-12-03T08:58:46.399829+00:00",
        "meta_object_name": "COSMOS 2251 DEB",
        "meta_object_id": "1993-036AUD",
        "meta_epoch": "2025-12-02T03:02:51.744192",
        "meta_mean_motion": 14.57171025,
        "meta_eccentricity": 0.00534303,
        "meta_inclination": 73.9364,
        "meta_ra_of_asc_node": 262.9881,
        "meta_arg_of_pericenter": 29.2492,
        "meta_mean_anomaly": 331.1644,
        "meta_ephemeris_type": 0,
        "meta_classification_type": "U",
        "meta_norad_cat_id": 35890,
        "meta_element_set_no": 999,
        "meta_rev_at_epoch": 64996,
        "meta_bstar": 0.0024494131,
        "meta_mean_motion_dot": 0.0001126,
        "meta_mean_motion_ddot": 0,
        "tle_line1": "1 35890U 93036AUD 25336.12698778  .00011260  00000+0  24494-2 0  9997",
        "tle_line2": "2 35890  73.9364 262.9881 0053430  29.2492 331.1644 14.57171025649967"
      },
      "geometry": {
        "type": "Point",
        "coordinates": [
          -73.34159345401085,
          56.73321663205764
        ]
      }
    },
    {
      "type": "Feature",
      "properties": {
        "norad_id": 35891,
        "name": "COSMOS 2251 DEB",
        "group": "cosmos-2251-debris",
        "lat": -57.6948052849928,
        "lon": 86.936751704816,
        "alt_km": 457.57305695912237,
        "timestamp": "2025-12-03T08:58:46.399839+00:00",
        "meta_object_name": "COSMOS 2251 DEB",
        "meta_object_id": "1993-036AUE",
        "meta_epoch": "2025-12-03T02:58:43.616352",
        "meta_mean_motion": 15.32047651,
        "meta_eccentricity": 0.0046141,
        "meta_inclination": 73.9877,
        "meta_ra_of_asc_node": 114.4843,
        "meta_arg_of_pericenter": 245.3974,
        "meta_mean_anomaly": 114.2419,
        "meta_ephemeris_type": 0,
        "meta_classification_type": "U",
        "meta_norad_cat_id": 35891,
        "meta_element_set_no": 999,
        "meta_rev_at_epoch": 67073,
        "meta_bstar": 0.0018018,
        "meta_mean_motion_dot": 0.00058053,
        "meta_mean_motion_ddot": 0,
        "tle_line1": "1 35891U 93036AUE 25337.12411593  .00058053  00000+0  18018-2 0  9993",
        "tle_line2": "2 35891  73.9877 114.4843 0046141 245.3974 114.2419 15.32047651670733"
      },
      "geometry": {
        "type": "Point",
        "coordinates": [
          86.936751704816,
          -57.6948052849928
        ]
      }
    },
    {
      "type": "Feature",
      "properties": {
        "norad_id": 35895,
        "name": "COSMOS 2251 DEB",
        "group": "cosmos-2251-debris",
        "lat": -7.647085642357978,
        "lon": 1.707859781567393,
        "alt_km": 945.566807271699,
        "timestamp": "2025-12-03T08:58:46.399849+00:00",
        "meta_object_name": "COSMOS 2251 DEB",
        "meta_object_id": "1993-036AUJ",
        "meta_epoch": "2025-11-28T10:48:22.739616",
        "meta_mean_motion": 14.01419981,
        "meta_eccentricity": 0.01996382,
        "meta_inclination": 74.0486,
        "meta_ra_of_asc_node": 12.4453,
        "meta_arg_of_pericenter": 114.4344,
        "meta_mean_anomaly": 247.7763,
        "meta_ephemeris_type": 0,
        "meta_classification_type": "U",
        "meta_norad_cat_id": 35895,
        "meta_element_set_no": 999,
        "meta_rev_at_epoch": 58812,
        "meta_bstar": 0.0013219318,
        "meta_mean_motion_dot": 2.352e-05,
        "meta_mean_motion_ddot": 0,
        "tle_line1": "1 35895U 93036AUJ 25332.45026319  .00002352  00000+0  13219-2 0  9995",
        "tle_line2": "2 35895  74.0486  12.4453 0199638 114.4344 247.7763 14.01419981588125"
      },
      "geometry": {
        "type": "Point",
        "coordinates": [
          1.707859781567393,
          -7.647085642357978
        ]
      }
    }
  ]
}